{
  "type": "FeatureCollection",
  "features": [
    {
      "type": "Feature",
      "properties": {
        "norad_id": 66954,
        "name": "HULIANWANG DIGUI-115",
        "group": "last-30-days",
        "lat": 15.988740444589338,
        "lon": -14.234797196004141,
        "alt_km": 1011.054213139816,
        "timestamp": "2025-12-16T13:52:36.289435+00:00",
        "meta_object_name": "HULIANWANG DIGUI-115",
        "meta_object_id": "2025-287B",
        "meta_epoch": "2025-12-15T06:13:08.738688",
        "meta_mean_motion": 13.6879189,
        "meta_eccentricity": 0.0008784,
        "meta_inclination": 86.4971,
        "meta_ra_of_asc_node": 345.2403,
        "meta_arg_of_pericenter": 196.1208,
        "meta_mean_anomaly": 163.9673,
        "meta_ephemeris_type": 0,
        "meta_classification_type": "U",
        "meta_norad_cat_id": 66954,
        "meta_element_set_no": 999,
        "meta_rev_at_epoch": 87,
        "meta_bstar": 2.6102444e-05,
        "meta_mean_motion_dot": 3.9e-07,
        "meta_mean_motion_ddot": 0,
        "tle_line1": "1 66954U 25287B   25349.25912892  .00000039  00000+0  26102-4 0  9991",
        "tle_line2": "2 66954  86.4971 345.2403 0008784 196.1208 163.9673 13.68791890   874"
      },
      "geometry": {
        "type": "Point",
        "coordinates": [
          -14.234797196004141,
          15.988740444589338
        ]
      }
    },
    {
      "type": "Feature",
      "properties": {
        "norad_id": 66955,
        "name": "HULIANWANG DIGUI-116",
        "group": "last-30-days",
        "lat": 19.046117435349647,
        "lon": -14.037472681067907,
        "alt_km": 1009.5345703654284,
        "timestamp": "2025-12-16T13:52:36.289447+00:00",
        "meta_object_name": "HULIANWANG DIGUI-116",
        "meta_object_id": "2025-287C",
        "meta_epoch": "2025-12-14T02:08:18.133728",
        "meta_mean_motion": 13.68903211,
        "meta_eccentricity": 0.00080818,
        "meta_inclination": 86.4907,
        "meta_ra_of_asc_node": 345.6576,
        "meta_arg_of_pericenter": 193.9217,
        "meta_mean_anomaly": 166.172,
        "meta_ephemeris_type": 0,
        "meta_classification_type": "U",
        "meta_norad_cat_id": 66955,
        "meta_element_set_no": 999,
        "meta_rev_at_epoch": 71,
        "meta_bstar": 2.5654516e-05,
        "meta_mean_motion_dot": 3.9e-07,
        "meta_mean_motion_ddot": 0,
        "tle_line1": "1 66955U 25287C   25348.08909877  .00000039  00000+0  25655-4 0  9993",
        "tle_line2": "2 66955  86.4907 345.6576 0008081 193.9217 166.1720 13.68903211   717"
      },
      "geometry": {
        "type": "Point",
        "coordinates": [
          -14.037472681067907,
          19.046117435349647
        ]
      }
    },
    {
      "type": "Feature",
      "properties": {
        "norad_id": 66956,
        "name": "HULIANWANG DIGUI-117",
        "group": "last-30-days",
        "lat": 22.18384734476825,
        "lon": -13.810526482953728,
        "alt_km": 1008.0680259124629,
        "timestamp": "2025-12-16T13:52:36.289458+00:00",
        "meta_object_name": "HULIANWANG DIGUI-117",
        "meta_object_id": "2025-287D",
        "meta_epoch": "2025-12-15T14:57:52.945344",
        "meta_mean_motion": 13.69018331,
        "meta_eccentricity": 0.00076604,
        "meta_inclination": 86.4969,
        "meta_ra_of_asc_node": 345.1063,
        "meta_arg_of_pericenter": 183.6249,
        "meta_mean_anomaly": 176.4856,
        "meta_ephemeris_type": 0,
        "meta_classification_type": "U",
        "meta_norad_cat_id": 66956,
        "meta_element_set_no": 999,
        "meta_rev_at_epoch": 92,
        "meta_bstar": 2.3367147e-05,
        "meta_mean_motion_dot": 3.7e-07,
        "meta_mean_motion_ddot": 0,
        "tle_line1": "1 66956U 25287D   25349.62352946  .00000037  00000+0  23367-4 0  9990",
        "tle_line2": "2 66956  86.4969 345.1063 0007660 183.6249 176.4856 13.69018331   923"
      },
      "geometry": {
        "type": "Point",
        "coordinates": [
          -13.810526482953728,
          22.18384734476825
        ]
      }
    },
    {
      "type": "Feature",
      "properties": {
        "norad_id": 66957,
        "name": "HULIANWANG DIGUI-118",
        "group": "last-30-days",
        "lat": 25.39396834767709,
        "lon": -13.5792853553204,
        "alt_km": 1006.7990845321083,
        "timestamp": "2025-12-16T13:52:36.289468+00:00",
        "meta_object_name": "HULIANWANG DIGUI-118",
        "meta_object_id": "2025-287E",
        "meta_epoch": "2025-12-15T14:57:03.727584",
        "meta_mean_motion": 13.69138315,
        "meta_eccentricity": 0.00074512,
        "meta_inclination": 86.4948,
        "meta_ra_of_asc_node": 345.102,
        "meta_arg_of_pericenter": 182.0052,
        "meta_mean_anomaly": 178.1079,
        "meta_ephemeris_type": 0,
        "meta_classification_type": "U",
        "meta_norad_cat_id": 66957,
        "meta_element_set_no": 999,
        "meta_rev_at_epoch": 92,
        "meta_bstar": -0.00015494599,
        "meta_mean_motion_dot": -1.17e-06,
        "meta_mean_motion_ddot": 0,
        "tle_line1": "1 66957U 25287E   25349.62295981 -.00000117  00000+0 -15495-3 0  9999",
        "tle_line2": "2 66957  86.4948 345.1020 0007451 182.0052 178.1079 13.69138315   928"
      },
      "geometry": {
        "type": "Point",
        "coordinates": [
          -13.5792853553204,
          25.39396834767709
        ]
      }
    },
    {
      "type": "Feature",
      "properties": {
        "norad_id": 66958,
        "name": "CZ-6A R/B",
        "group": "last-30-days",
        "lat": 8.430007705057541,
        "lon": -14.839738310400136,
        "alt_km": 901.5926587620233,
        "timestamp": "2025-12-16T13:52:36.289478+00:00",
        "meta_object_name": "CZ-6A R/B",
        "meta_object_id": "2025-287F",
        "meta_epoch": "2025-12-15T22:20:32.025408",
        "meta_mean_motion": 13.94920446,
        "meta_eccentricity": 0.01073082,
        "meta_inclination": 86.5058,
        "meta_ra_of_asc_node": 344.8874,
        "meta_arg_of_pericenter": 92.5647,
        "meta_mean_anomaly": 268.7817,
        "meta_ephemeris_type": 0,
        "meta_classification_type": "U",
        "meta_norad_cat_id": 66958,
        "meta_element_set_no": 999,
        "meta_rev_at_epoch": 98,
        "meta_bstar": 0.00013934096,
        "meta_mean_motion_dot": 2.15e-06,
        "meta_mean_motion_ddot": 0,
        "tle_line1": "1 66958U 25287F   25349.93092622  .00000215  00000+0  13934-3 0  9994",
        "tle_line2": "2 66958  86.5058 344.8874 0107308  92.5647 268.7817 13.94920446   986"
      },
      "geometry": {
        "type": "Point",
        "coordinates": [
          -14.839738310400136,
          8.430007705057541
        ]
      }
    },
    {
      "type": "Feature",
      "properties": {
        "norad_id": 66988,
        "name": "YAOGAN-47",
        "group": "last-30-days",
        "lat": 30.653261325881168,
        "lon": -119.79971240789818,
        "alt_km": 494.63235734237423,
        "timestamp": "2025-12-16T13:52:36.289490+00:00",
        "meta_object_name": "YAOGAN-47",
        "meta_object_id": "2025-289A",
        "meta_epoch": "2025-12-15T02:32:19.481856",
        "meta_mean_motion": 15.23184629,
        "meta_eccentricity": 7.87e-05,
        "meta_inclination": 97.5271,
        "meta_ra_of_asc_node": 54.2297,
        "meta_arg_of_pericenter": 67.3408,
        "meta_mean_anomaly": 292.7912,
        "meta_ephemeris_type": 0,
        "meta_classification_type": "U",
        "meta_norad_cat_id": 66988,
        "meta_element_set_no": 999,
        "meta_rev_at_epoch": 90,
        "meta_bstar": 0.00011849353,
        "meta_mean_motion_dot": 2.729e-05,
        "meta_mean_motion_ddot": 0,
        "tle_line1": "1 66988U 25289A   25349.10578104  .00002729  00000+0  11849-3 0  9997",
        "tle_line2": "2 66988  97.5271  54.2297 0000787  67.3408 292.7912 15.23184629   901"
      },
      "geometry": {
        "type": "Point",
        "coordinates": [
          -119.79971240789818,
          30.653261325881168
        ]
      }
    },
    {
      "type": "Feature",
      "properties": {
        "norad_id": 66989,
        "name": "CZ-4B R/B",
        "group": "last-30-days",
        "lat": -31.4845661788962,
        "lon": -128.44495462584902,
        "alt_km": 441.65614043270034,
        "timestamp": "2025-12-16T13:52:36.289502+00:00",
        "meta_object_name": "CZ-4B R/B",
        "meta_object_id": "2025-289B",
        "meta_epoch": "2025-12-15T18:35:30.469344",
        "meta_mean_motion": 15.67967636,
        "meta_eccentricity": 0.01467628,
        "meta_inclination": 97.5266,
        "meta_ra_of_asc_node": 55.3375,
        "meta_arg_of_pericenter": 351.4879,
        "meta_mean_anomaly": 8.3893,
        "meta_ephemeris_type": 0,
        "meta_classification_type": "U",
        "meta_norad_cat_id": 66989,
        "meta_element_set_no": 999,
        "meta_rev_at_epoch": 104,
        "meta_bstar": 0.00051310733,
        "meta_mean_motion_dot": 0.00104226,
        "meta_mean_motion_ddot": 5.312202e-06,
        "tle_line1": "1 66989U 25289B   25349.77465821  .00104226  53122-5  51311-3 0  9994",
        "tle_line2": "2 66989  97.5266  55.3375 0146762 351.4879   8.3893 15.67967636  1048"
      },
      "geometry": {
        "type": "Point",
        "coordinates": [
          -128.44495462584902,
          -31.4845661788962
        ]
      }
    }
  ]
}